CCSDS_OMM_VERS = 2.0
CREATION_DATE  = 
ORIGINATOR     = 

OBJECT_NAME    = UNKNOWN
OBJECT_ID      = 
CENTER_NAME    = EARTH
REF_FRAME      = TEME
TIME_SYSTEM    = UTC
MEAN_ELEMENT_THEORY = SGP/SGP4

EPOCH          = 2026-01-07T17:38:36.244608
MEAN_MOTION    = 12.99980799
ECCENTRICITY   = .00264038
INCLINATION    = 90.2401
RA_OF_ASC_NODE = 7.6674
ARG_OF_PERICENTER = 336.6729
MEAN_ANOMALY   = 23.3194

EPHEMERIS_TYPE = 0
CLASSIFICATION_TYPE = U
NORAD_CAT_ID   = 270164
ELEMENT_SET_NO = 999
REV_AT_EPOCH   = 28913
BSTAR          = .14342017E-2
MEAN_MOTION_DOT = .439E-5
MEAN_MOTION_DDOT = 0

CCSDS_OMM_VERS = 2.0
CREATION_DATE  = 
ORIGINATOR     = 

OBJECT_NAME    = UNKNOWN
OBJECT_ID      = 
CENTER_NAME    = EARTH
REF_FRAME      = TEME
TIME_SYSTEM    = UTC
MEAN_ELEMENT_THEORY = SGP/SGP4

EPOCH          = 2026-01-08T17:26:54.585888
MEAN_MOTION    = 12.95687260
ECCENTRICITY   = .00416204
INCLINATION    = 90.2390
RA_OF_ASC_NODE = 8.6578
ARG_OF_PERICENTER = 255.7298
MEAN_ANOMALY   = 103.9198

EPHEMERIS_TYPE = 0
CLASSIFICATION_TYPE = U
NORAD_CAT_ID   = 270165
ELEMENT_SET_NO = 999
REV_AT_EPOCH   = 28781
BSTAR          = .22971966E-3
MEAN_MOTION_DOT = .72E-6
MEAN_MOTION_DDOT = 0

CCSDS_OMM_VERS = 2.0
CREATION_DATE  = 
ORIGINATOR     = 

OBJECT_NAME    = UNKNOWN
OBJECT_ID      = 
CENTER_NAME    = EARTH
REF_FRAME      = TEME
TIME_SYSTEM    = UTC
MEAN_ELEMENT_THEORY = SGP/SGP4

EPOCH          = 2026-01-07T07:19:58.769184
MEAN_MOTION    = 14.31227467
ECCENTRICITY   = .00054063
INCLINATION    = 98.7490
RA_OF_ASC_NODE = 28.2240
ARG_OF_PERICENTER = 158.7255
MEAN_ANOMALY   = 201.4154

EPHEMERIS_TYPE = 0
CLASSIFICATION_TYPE = U
NORAD_CAT_ID   = 270166
ELEMENT_SET_NO = 999
REV_AT_EPOCH   = 31878
BSTAR          = .15648055E-3
MEAN_MOTION_DOT = .368E-5
MEAN_MOTION_DDOT = 0

CCSDS_OMM_VERS = 2.0
CREATION_DATE  = 
ORIGINATOR     = 

OBJECT_NAME    = UNKNOWN
OBJECT_ID      = 
CENTER_NAME    = EARTH
REF_FRAME      = TEME
TIME_SYSTEM    = UTC
MEAN_ELEMENT_THEORY = SGP/SGP4

EPOCH          = 2025-12-20T23:38:02.292864
MEAN_MOTION    = 11.48035833
ECCENTRICITY   = .07034666
INCLINATION    = 65.7367
RA_OF_ASC_NODE = 102.8778
ARG_OF_PERICENTER = 192.1233
MEAN_ANOMALY   = 166.1978

EPHEMERIS_TYPE = 0
CLASSIFICATION_TYPE = U
NORAD_CAT_ID   = 270167
ELEMENT_SET_NO = 999
REV_AT_EPOCH   = 25404
BSTAR          = .23478926E-3
MEAN_MOTION_DOT = -.25E-6
MEAN_MOTION_DDOT = 0

CCSDS_OMM_VERS = 2.0
CREATION_DATE  = 
ORIGINATOR     = 

OBJECT_NAME    = UNKNOWN
OBJECT_ID      = 
CENTER_NAME    = EARTH
REF_FRAME      = TEME
TIME_SYSTEM    = UTC
MEAN_ELEMENT_THEORY = SGP/SGP4

EPOCH          = 2026-01-02T15:06:27.802080
MEAN_MOTION    = 14.38741526
ECCENTRICITY   = .00637063
INCLINATION    = 86.1987
RA_OF_ASC_NODE = 332.5034
ARG_OF_PERICENTER = 180.6067
MEAN_ANOMALY   = 179.5065

EPHEMERIS_TYPE = 0
CLASSIFICATION_TYPE = U
NORAD_CAT_ID   = 270168
ELEMENT_SET_NO = 999
REV_AT_EPOCH   = 31807
BSTAR          = .2605134E-2
MEAN_MOTION_DOT = .821E-4
MEAN_MOTION_DDOT = 0

CCSDS_OMM_VERS = 2.0
CREATION_DATE  = 
ORIGINATOR     = 

OBJECT_NAME    = UNKNOWN
OBJECT_ID      = 
CENTER_NAME    = EARTH
REF_FRAME      = TEME
TIME_SYSTEM    = UTC
MEAN_ELEMENT_THEORY = SGP/SGP4

EPOCH          = 2026-01-08T21:42:09.723744
MEAN_MOTION    = 14.41570215
ECCENTRICITY   = .00151252
INCLINATION    = 65.0053
RA_OF_ASC_NODE = 242.5446
ARG_OF_PERICENTER = 283.6799
MEAN_ANOMALY   = 76.2607

EPHEMERIS_TYPE = 0
CLASSIFICATION_TYPE = U
NORAD_CAT_ID   = 270170
ELEMENT_SET_NO = 999
REV_AT_EPOCH   = 32076
BSTAR          = .35925013E-3
MEAN_MOTION_DOT = .107E-4
MEAN_MOTION_DDOT = 0

CCSDS_OMM_VERS = 2.0
CREATION_DATE  = 
ORIGINATOR     = 

OBJECT_NAME    = UNKNOWN
OBJECT_ID      = 
CENTER_NAME    = EARTH
REF_FRAME      = TEME
TIME_SYSTEM    = UTC
MEAN_ELEMENT_THEORY = SGP/SGP4

EPOCH          = 2026-01-05T08:33:41.340672
MEAN_MOTION    = 11.95815648
ECCENTRICITY   = .0020645
INCLINATION    = 82.4200
RA_OF_ASC_NODE = 41.2915
ARG_OF_PERICENTER = 275.5742
MEAN_ANOMALY   = 84.2956

EPHEMERIS_TYPE = 0
CLASSIFICATION_TYPE = U
NORAD_CAT_ID   = 270171
ELEMENT_SET_NO = 999
REV_AT_EPOCH   = 26617
BSTAR          = .16885528E-2
MEAN_MOTION_DOT = .138E-5
MEAN_MOTION_DDOT = 0

CCSDS_OMM_VERS = 2.0
CREATION_DATE  = 
ORIGINATOR     = 

OBJECT_NAME    = UNKNOWN
OBJECT_ID      = 
CENTER_NAME    = EARTH
REF_FRAME      = TEME
TIME_SYSTEM    = UTC
MEAN_ELEMENT_THEORY = SGP/SGP4

EPOCH          = 2026-01-09T06:47:52.570176
MEAN_MOTION    = 14.45567376
ECCENTRICITY   = .00269809
INCLINATION    = 86.3730
RA_OF_ASC_NODE = 29.8340
ARG_OF_PERICENTER = 66.8139
MEAN_ANOMALY   = 293.5901

EPHEMERIS_TYPE = 0
CLASSIFICATION_TYPE = U
NORAD_CAT_ID   = 270172
ELEMENT_SET_NO = 999
REV_AT_EPOCH   = 32133
BSTAR          = .50427093E-3
MEAN_MOTION_DOT = .1807E-4
MEAN_MOTION_DDOT = 0

CCSDS_OMM_VERS = 2.0
CREATION_DATE  = 
ORIGINATOR     = 

OBJECT_NAME    = UNKNOWN
OBJECT_ID      = 
CENTER_NAME    = EARTH
REF_FRAME      = TEME
TIME_SYSTEM    = UTC
MEAN_ELEMENT_THEORY = SGP/SGP4

EPOCH          = 2026-01-08T09:28:08.418432
MEAN_MOTION    = 14.85223769
ECCENTRICITY   = .00020543
INCLINATION    = 86.6027
RA_OF_ASC_NODE = 54.6173
ARG_OF_PERICENTER = 77.5306
MEAN_ANOMALY   = 282.6148

EPHEMERIS_TYPE = 0
CLASSIFICATION_TYPE = U
NORAD_CAT_ID   = 270173
ELEMENT_SET_NO = 999
REV_AT_EPOCH   = 32801
BSTAR          = .41310987E-3
MEAN_MOTION_DOT = .3566E-4
MEAN_MOTION_DDOT = 0

CCSDS_OMM_VERS = 2.0
CREATION_DATE  = 
ORIGINATOR     = 

OBJECT_NAME    = UNKNOWN
OBJECT_ID      = 
CENTER_NAME    = EARTH
REF_FRAME      = TEME
TIME_SYSTEM    = UTC
MEAN_ELEMENT_THEORY = SGP/SGP4

EPOCH          = 2026-01-07T08:43:25.980096
MEAN_MOTION    = 11.49753220
ECCENTRICITY   = .09498272
INCLINATION    = 63.3909
RA_OF_ASC_NODE = 46.5325
ARG_OF_PERICENTER = 317.6018
MEAN_ANOMALY   = 35.5154

EPHEMERIS_TYPE = 0
CLASSIFICATION_TYPE = U
NORAD_CAT_ID   = 270174
ELEMENT_SET_NO = 999
REV_AT_EPOCH   = 25689
BSTAR          = -.85201311E-3
MEAN_MOTION_DOT = -.164E-5
MEAN_MOTION_DDOT = 0

CCSDS_OMM_VERS = 2.0
CREATION_DATE  = 
ORIGINATOR     = 

OBJECT_NAME    = UNKNOWN
OBJECT_ID      = 
CENTER_NAME    = EARTH
REF_FRAME      = TEME
TIME_SYSTEM    = UTC
MEAN_ELEMENT_THEORY = SGP/SGP4

EPOCH          = 2026-01-06T16:00:29.608704
MEAN_MOTION    = 13.04468225
ECCENTRICITY   = .00282493
INCLINATION    = 90.2299
RA_OF_ASC_NODE = 353.4879
ARG_OF_PERICENTER = 277.5856
MEAN_ANOMALY   = 82.2061

EPHEMERIS_TYPE = 0
CLASSIFICATION_TYPE = U
NORAD_CAT_ID   = 270176
ELEMENT_SET_NO = 999
REV_AT_EPOCH   = 28972
BSTAR          = -.49541364E-3
MEAN_MOTION_DOT = -.152E-5
MEAN_MOTION_DDOT = 0

CCSDS_OMM_VERS = 2.0
CREATION_DATE  = 
ORIGINATOR     = 

OBJECT_NAME    = UNKNOWN
OBJECT_ID      = 
CENTER_NAME    = EARTH
REF_FRAME      = TEME
TIME_SYSTEM    = UTC
MEAN_ELEMENT_THEORY = SGP/SGP4

EPOCH          = 2026-01-09T06:05:48.028704
MEAN_MOTION    = 14.32132014
ECCENTRICITY   = .00186433
INCLINATION    = 98.6890
RA_OF_ASC_NODE = 12.6738
ARG_OF_PERICENTER = 262.5920
MEAN_ANOMALY   = 97.3145

EPHEMERIS_TYPE = 0
CLASSIFICATION_TYPE = U
NORAD_CAT_ID   = 270178
ELEMENT_SET_NO = 999
REV_AT_EPOCH   = 31837
BSTAR          = .17726595E-3
MEAN_MOTION_DOT = .433E-5
MEAN_MOTION_DDOT = 0

CCSDS_OMM_VERS = 2.0
CREATION_DATE  = 
ORIGINATOR     = 

OBJECT_NAME    = UNKNOWN
OBJECT_ID      = 
CENTER_NAME    = EARTH
REF_FRAME      = TEME
TIME_SYSTEM    = UTC
MEAN_ELEMENT_THEORY = SGP/SGP4

EPOCH          = 2025-12-17T17:56:08.288160
MEAN_MOTION    = 14.38417267
ECCENTRICITY   = .00322943
INCLINATION    = 98.6231
RA_OF_ASC_NODE = 352.3008
ARG_OF_PERICENTER = 355.3615
MEAN_ANOMALY   = 4.7268

EPHEMERIS_TYPE = 0
CLASSIFICATION_TYPE = U
NORAD_CAT_ID   = 270179
ELEMENT_SET_NO = 999
REV_AT_EPOCH   = 31632
BSTAR          = .15007883E-3
MEAN_MOTION_DOT = .415E-5
MEAN_MOTION_DDOT = 0

CCSDS_OMM_VERS = 2.0
CREATION_DATE  = 
ORIGINATOR     = 

OBJECT_NAME    = UNKNOWN
OBJECT_ID      = 
CENTER_NAME    = EARTH
REF_FRAME      = TEME
TIME_SYSTEM    = UTC
MEAN_ELEMENT_THEORY = SGP/SGP4

EPOCH          = 2026-01-05T08:40:09.433056
MEAN_MOTION    = 12.92300959
ECCENTRICITY   = .06987854
INCLINATION    = 72.9832
RA_OF_ASC_NODE = 46.7122
ARG_OF_PERICENTER = 333.2868
MEAN_ANOMALY   = 23.3728

EPHEMERIS_TYPE = 0
CLASSIFICATION_TYPE = U
NORAD_CAT_ID   = 270181
ELEMENT_SET_NO = 999
REV_AT_EPOCH   = 28687
BSTAR          = .58836907E-2
MEAN_MOTION_DOT = .4789E-4
MEAN_MOTION_DDOT = 0

CCSDS_OMM_VERS = 2.0
CREATION_DATE  = 
ORIGINATOR     = 

OBJECT_NAME    = UNKNOWN
OBJECT_ID      = 
CENTER_NAME    = EARTH
REF_FRAME      = TEME
TIME_SYSTEM    = UTC
MEAN_ELEMENT_THEORY = SGP/SGP4

EPOCH          = 2025-12-14T06:51:35.083008
MEAN_MOTION    = 13.01407184
ECCENTRICITY   = .00386021
INCLINATION    = 90.2412
RA_OF_ASC_NODE = 355.4989
ARG_OF_PERICENTER = 15.6110
MEAN_ANOMALY   = 344.6194

EPHEMERIS_TYPE = 0
CLASSIFICATION_TYPE = U
NORAD_CAT_ID   = 270183
ELEMENT_SET_NO = 999
REV_AT_EPOCH   = 28626
BSTAR          = -.96836052E-3
MEAN_MOTION_DOT = -.291E-5
MEAN_MOTION_DDOT = 0

CCSDS_OMM_VERS = 2.0
CREATION_DATE  = 
ORIGINATOR     = 

OBJECT_NAME    = UNKNOWN
OBJECT_ID      = 
CENTER_NAME    = EARTH
REF_FRAME      = TEME
TIME_SYSTEM    = UTC
MEAN_ELEMENT_THEORY = SGP/SGP4

EPOCH          = 2026-01-06T06:37:08.466816
MEAN_MOTION    = 12.96031766
ECCENTRICITY   = .0031895
INCLINATION    = 90.2365
RA_OF_ASC_NODE = 2.0162
ARG_OF_PERICENTER = 238.2051
MEAN_ANOMALY   = 121.5961

EPHEMERIS_TYPE = 0
CLASSIFICATION_TYPE = U
NORAD_CAT_ID   = 270184
ELEMENT_SET_NO = 999
REV_AT_EPOCH   = 28767
BSTAR          = .20834572E-2
MEAN_MOTION_DOT = .601E-5
MEAN_MOTION_DDOT = 0

